{
  "links" : {
    "next" : "https://api.nasa.gov/neo/rest/v1/feed?start_date=1996-12-16&end_date=1996-12-16&detailed=true&api_key=t0TVs3DtDT2H8Oy2Zy8m2eVrNsAVKAexjcZXUckd",
    "prev" : "https://api.nasa.gov/neo/rest/v1/feed?start_date=1996-12-14&end_date=1996-12-14&detailed=true&api_key=t0TVs3DtDT2H8Oy2Zy8m2eVrNsAVKAexjcZXUckd",
    "self" : "https://api.nasa.gov/neo/rest/v1/feed?start_date=1996-12-15&end_date=1996-12-15&detailed=true&api_key=t0TVs3DtDT2H8Oy2Zy8m2eVrNsAVKAexjcZXUckd"
  },
  "element_count" : 7,
  "near_earth_objects" : {
    "1996-12-15" : [ {
      "links" : {
        "self" : "https://api.nasa.gov/neo/rest/v1/neo/3603128?api_key=t0TVs3DtDT2H8Oy2Zy8m2eVrNsAVKAexjcZXUckd"
      },
      "neo_reference_id" : "3603128",
      "name" : "(2012 HL31)",
      "nasa_jpl_url" : "http://ssd.jpl.nasa.gov/sbdb.cgi?sstr=3603128",
      "absolute_magnitude_h" : 22.3,
      "estimated_diameter" : {
        "kilometers" : {
          "estimated_diameter_min" : 0.0921626549,
          "estimated_diameter_max" : 0.2060819612
        },
        "meters" : {
          "estimated_diameter_min" : 92.1626548503,
          "estimated_diameter_max" : 206.0819612321
        },
        "miles" : {
          "estimated_diameter_min" : 0.057267201,
          "estimated_diameter_max" : 0.1280533543
        },
        "feet" : {
          "estimated_diameter_min" : 302.370924539,
          "estimated_diameter_max" : 676.1219416887
        }
      },
      "is_potentially_hazardous_asteroid" : false,
      "close_approach_data" : [ {
        "close_approach_date" : "1996-12-15",
        "epoch_date_close_approach" : 850636800000,
        "relative_velocity" : {
          "kilometers_per_second" : "18.4396968582",
          "kilometers_per_hour" : "66382.9086893458",
          "miles_per_hour" : "41247.7579019993"
        },
        "miss_distance" : {
          "astronomical" : "0.4494821351",
          "lunar" : "174.8485565186",
          "kilometers" : "67241576",
          "miles" : "41781976"
        },
        "orbiting_body" : "Earth"
      } ],
      "orbital_data" : {
        "orbit_id" : "14",
        "orbit_determination_date" : "2017-05-03 06:19:10",
        "orbit_uncertainty" : "1",
        "minimum_orbit_intersection" : ".14639",
        "jupiter_tisserand_invariant" : "6.583",
        "epoch_osculation" : "2458000.5",
        "eccentricity" : ".3741253428397709",
        "semi_major_axis" : ".887616302242528",
        "inclination" : "19.80932507185338",
        "ascending_node_longitude" : "37.519513630256",
        "orbital_period" : "305.447329092136",
        "perihelion_distance" : ".5555365488558726",
        "perihelion_argument" : "17.49316240881426",
        "aphelion_distance" : "1.219696055629183",
        "perihelion_time" : "2458059.109995780296",
        "mean_anomaly" : "290.9223015843031",
        "mean_motion" : "1.178599272974518",
        "equinox" : "J2000"
      }
    } ]
  }
}